$$SOE
2461288.500000000, A.D. 2026-Sep-05 00:00:00.0000, 3.023520231328894E+08, -6.036746245427294E+08, -4.930684782619536E+06,
2461295.500000000, A.D. 2026-Sep-12 00:00:00.0000, 3.093123802201785E+08, -5.999493432798485E+08, -4.291773250609338E+06,
2461302.500000000, A.D. 2026-Sep-19 00:00:00.0000, 3.162239366219373E+08, -5.961293942292734E+08, -3.652184473311841E+06,
2461309.500000000, A.D. 2026-Sep-26 00:00:00.0000, 3.230855588862247E+08, -5.922153043168740E+08, -3.012018837811321E+06,
2461316.500000000, A.D. 2026-Oct-03 00:00:00.0000, 3.298961169734937E+08, -5.882076109626049E+08, -2.371376998192042E+06,
2461323.500000000, A.D. 2026-Oct-10 00:00:00.0000, 3.366544842340997E+08, -5.841068619933201E+08, -1.730359869298130E+06,
2461330.500000000, A.D. 2026-Oct-17 00:00:00.0000, 3.433595373532967E+08, -5.799136156325359E+08, -1.089068624141008E+06,
2461337.500000000, A.D. 2026-Oct-24 00:00:00.0000, 3.500101562879925E+08, -5.756284405896561E+08, -4.476046989325881E+05,
2461344.500000000, A.D. 2026-Oct-31 00:00:00.0000, 3.566052242940072E+08, -5.712519163151582E+08, 1.939301798737645E+05,
2461351.500000000, A.D. 2026-Nov-07 00:00:00.0000, 3.631436283829966E+08, -5.667846333475018E+08, 8.354339216564596E+05,
2461358.500000000, A.D. 2026-Nov-14 00:00:00.0000, 3.696242604101226E+08, -5.622271928643949E+08, 1.476804005137533E+06,
2461365.500000000, A.D. 2026-Nov-21 00:00:00.0000, 3.760460169807859E+08, -5.575802047567506E+08, 2.117937641494155E+06,
2461372.500000000, A.D. 2026-Nov-28 00:00:00.0000, 3.824077971780999E+08, -5.528442872332923E+08, 2.758732013045937E+06,
2461379.500000000, A.D. 2026-Dec-05 00:00:00.0000, 3.887085017305655E+08, -5.480200686116911E+08, 3.399084202158630E+06,
2461386.500000000, A.D. 2026-Dec-12 00:00:00.0000, 3.949470337851237E+08, -5.431081881850884E+08, 4.038891049761385E+06,
2461393.500000000, A.D. 2026-Dec-19 00:00:00.0000, 4.011222993985588E+08, -5.381092961576730E+08, 4.678049117379189E+06,
2461400.500000000, A.D. 2026-Dec-26 00:00:00.0000, 4.072332076049208E+08, -5.330240535174479E+08, 5.316454695037276E+06,
2461407.500000000, A.D. 2027-Jan-02 00:00:00.0000, 4.132786703346063E+08, -5.278531320372149E+08, 5.954003814319432E+06,
2461414.500000000, A.D. 2027-Jan-09 00:00:00.0000, 4.192576023014866E+08, -5.225972143837610E+08, 6.590592257633060E+06,
2461421.500000000, A.D. 2027-Jan-16 00:00:00.0000, 4.251689208923946E+08, -5.172569943265968E+08, 7.226115561236560E+06,
2461428.500000000, A.D. 2027-Jan-23 00:00:00.0000, 4.310115461035682E+08, -5.118331770859681E+08, 7.860469004585445E+06,
2461435.500000000, A.D. 2027-Jan-30 00:00:00.0000, 4.367844007102535E+08, -5.063264798679287E+08, 8.493547564830393E+06,
2461442.500000000, A.D. 2027-Feb-06 00:00:00.0000, 4.424864110928117E+08, -5.007376322464952E+08, 9.125245825215310E+06,
2461449.500000000, A.D. 2027-Feb-13 00:00:00.0000, 4.481165082578286E+08, -4.950673751734907E+08, 9.755457979178786E+06,
2461456.500000000, A.D. 2027-Feb-20 00:00:00.0000, 4.536736266891502E+08, -4.893164594074836E+08, 1.038407808218792E+07,
2461463.500000000, A.D. 2027-Feb-27 00:00:00.0000, 4.591567024236134E+08, -4.834856465754327E+08, 1.101100016042739E+07,
2461470.500000000, A.D. 2027-Mar-06 00:00:00.0000, 4.645646733690181E+08, -4.775757109441234E+08, 1.163611805642116E+07,
2461477.500000000, A.D. 2027-Mar-13 00:00:00.0000, 4.698964802641526E+08, -4.715874398519085E+08, 1.225932532567096E+07,
2461484.500000000, A.D. 2027-Mar-20 00:00:00.0000, 4.751510671515965E+08, -4.655216336355592E+08, 1.288051521954873E+07,
2461491.500000000, A.D. 2027-Mar-27 00:00:00.0000, 4.803273815654303E+08, -4.593791056012895E+08, 1.349958069094053E+07,
2461498.500000000, A.D. 2027-Apr-03 00:00:00.0000, 4.854243746368232E+08, -4.531606820877856E+08, 1.411641440005040E+07,
2461505.500000000, A.D. 2027-Apr-10 00:00:00.0000, 4.904410011787247E+08, -4.468672025982444E+08, 1.473090871657613E+07,
2461512.500000000, A.D. 2027-Apr-17 00:00:00.0000, 4.953762197715754E+08, -4.404995200156956E+08, 1.534295571501625E+07,
2461519.500000000, A.D. 2027-Apr-24 00:00:00.0000, 5.002289929289986E+08, -4.340585009635317E+08, 1.595244715070999E+07,
2461526.500000000, A.D. 2027-May-01 00:00:00.0000, 5.049982876429607E+08, -4.275450262829699E+08, 1.655927439135164E+07,
2461533.500000000, A.D. 2027-May-08 00:00:00.0000, 5.096830766160312E+08, -4.209599908785937E+08, 1.716332833694184E+07,
2461540.500000000, A.D. 2027-May-15 00:00:00.0000, 5.142823386844392E+08, -4.143043019784836E+08, 1.776449954344949E+07,
2461547.500000000, A.D. 2027-May-22 00:00:00.0000, 5.187950568684105E+08, -4.075788784007416E+08, 1.836267848188750E+07,
2461554.500000000, A.D. 2027-May-29 00:00:00.0000, 5.232202174057474E+08, -4.007846522945548E+08, 1.895775550506720E+07,
2461561.500000000, A.D. 2027-Jun-05 00:00:00.0000, 5.275568106537824E+08, -3.939225702238955E+08, 1.954962069692132E+07,
2461568.500000000, A.D. 2027-Jun-12 00:00:00.0000, 5.318038318526024E+08, -3.869935931622150E+08, 2.013816382397473E+07,
2461575.500000000, A.D. 2027-Jun-19 00:00:00.0000, 5.359602814187399E+08, -3.799986963333259E+08, 2.072327434310427E+07,
2461582.500000000, A.D. 2027-Jun-26 00:00:00.0000, 5.400251650488452E+08, -3.729388691598408E+08, 2.130484141881239E+07,
2461589.500000000, A.D. 2027-Jul-03 00:00:00.0000, 5.439974937655319E+08, -3.658151153108379E+08, 2.188275393880594E+07,
2461596.500000000, A.D. 2027-Jul-10 00:00:00.0000, 5.478762839422987E+08, -3.586284528399699E+08, 2.245690052546166E+07,
2461603.500000000, A.D. 2027-Jul-17 00:00:00.0000, 5.516605573438822E+08, -3.513799144527854E+08, 2.302716953692286E+07,
2461610.500000000, A.D. 2027-Jul-24 00:00:00.0000, 5.553493413384092E+08, -3.440705479658869E+08, 2.359344903857487E+07,
2461617.500000000, A.D. 2027-Jul-31 00:00:00.0000, 5.589416696927754E+08, -3.367014167220889E+08, 2.415562672662348E+07,
2461624.500000000, A.D. 2027-Aug-07 00:00:00.0000, 5.624365837508421E+08, -3.292735988095891E+08, 2.471358991652225E+07,
2461631.500000000, A.D. 2027-Aug-14 00:00:00.0000, 5.658331316937674E+08, -3.217881853386109E+08, 2.526722578679161E+07,
2461638.500000000, A.D. 2027-Aug-21 00:00:00.0000, 5.691303665005919E+08, -3.142462811398401E+08, 2.581642154663207E+07,
2461645.500000000, A.D. 2027-Aug-28 00:00:00.0000, 5.723273460397717E+08, -3.066490066810180E+08, 2.636106431088230E+07,
2461652.500000000, A.D. 2027-Sep-04 00:00:00.0000, 5.754231341106000E+08, -2.989974986989044E+08, 2.690104099501660E+07,
2461659.500000000, A.D. 2027-Sep-11 00:00:00.0000, 5.784168010395209E+08, -2.912929102076623E+08, 2.743623830394304E+07,
2461666.500000000, A.D. 2027-Sep-18 00:00:00.0000, 5.813074239647993E+08, -2.835364105335596E+08, 2.796654274903664E+07,
2461673.500000000, A.D. 2027-Sep-25 00:00:00.0000, 5.840940870386889E+08, -2.757291854531966E+08, 2.849184066583511E+07,
2461680.500000000, A.D. 2027-Oct-02 00:00:00.0000, 5.867758816224680E+08, -2.678724374072057E+08, 2.901201822752926E+07,
2461687.500000000, A.D. 2027-Oct-09 00:00:00.0000, 5.893519064971613E+08, -2.599673857934290E+08, 2.952696145159924E+07,
2461694.500000000, A.D. 2027-Oct-16 00:00:00.0000, 5.918212681534201E+08, -2.520152673939579E+08, 3.003655618911197E+07,
2461701.500000000, A.D. 2027-Oct-23 00:00:00.0000, 5.941830814206338E+08, -2.440173369411579E+08, 3.054068807218672E+07,
2461708.500000000, A.D. 2027-Oct-30 00:00:00.0000, 5.964364708102427E+08, -2.359748672116286E+08, 3.103924243499874E+07,
2461715.500000000, A.D. 2027-Nov-06 00:00:00.0000, 5.985805714104874E+08, -2.278891475193669E+08, 3.153210440721204E+07,
2461722.500000000, A.D. 2027-Nov-13 00:00:00.0000, 6.006145273479134E+08, -2.197614826843049E+08, 3.201915919231716E+07,
2461729.500000000, A.D. 2027-Nov-20 00:00:00.0000, 6.025374907174997E+08, -2.115931946620683E+08, 3.250029208607189E+07,
2461736.500000000, A.D. 2027-Nov-27 00:00:00.0000, 6.043486225987843E+08, -2.033856238700046E+08, 3.297538832894146E+07,
2461743.500000000, A.D. 2027-Dec-04 00:00:00.0000, 6.060470941346076E+08, -1.951401292951559E+08, 3.344433305288856E+07,
2461750.500000000, A.D. 2027-Dec-11 00:00:00.0000, 6.076320871220504E+08, -1.868580883479392E+08, 3.390701129432093E+07,
2461757.500000000, A.D. 2027-Dec-18 00:00:00.0000, 6.091027943904819E+08, -1.785408968003572E+08, 3.436330802033810E+07,
2461764.500000000, A.D. 2027-Dec-25 00:00:00.0000, 6.104584201185130E+08, -1.701899688104458E+08, 3.481310815421768E+07,
2461771.500000000, A.D. 2028-Jan-01 00:00:00.0000, 6.116981801311772E+08, -1.618067370177518E+08, 3.525629659760873E+07,
$$EOE